STARLINK-36923          
1 68016U 26040B   26087.86471411  .00161372  00000+0  10601-2 0  9997
2 68016  97.2860  37.2542 0001752  65.9812 294.1637 15.75241812  4376
