{
  "norad_id": 68016,
  "name": "STARLINK-36923",
  "history": [
    {
      "epoch": "2026-03-28T20:45:11.299104",
      "apogee_km": 345.12100818673844,
      "perigee_km": 342.7653224136111,
      "latitude_deg": 84.49339853041148,
      "longitude_deg": -15.387445440050215,
      "semi_major_axis_km": 6722.0801653001745,
      "eccentricity": 0.00017522,
      "inclination_deg": 97.286,
      "raan_deg": 37.2542,
      "arg_perigee_deg": 65.9812,
      "mean_anomaly_deg": 294.1637,
      "mean_motion_rev_day": 15.75241812
    }
  ]
}